[{"OBJECT_NAME":"NUSAT-48 (HENRIETTA LEAVITT)","OBJECT_ID":"2024-149AG","EPOCH":"2026-03-09T19:19:17.269536","MEAN_MOTION":15.29812597,"ECCENTRICITY":0.00027538,"INCLINATION":97.3923,"RA_OF_ASC_NODE":150.8264,"ARG_OF_PERICENTER":263.3026,"MEAN_ANOMALY":96.7901,"EPHEMERIS_TYPE":0,"CLASSIFICATION_TYPE":"U","NORAD_CAT_ID":60498,"ELEMENT_SET_NO":999,"REV_AT_EPOCH":8694,"BSTAR":0.00045211745,"MEAN_MOTION_DOT":0.00012988,"MEAN_MOTION_DDOT":0},{"OBJECT_NAME":"STARLINK-36070","OBJECT_ID":"2025-281S","EPOCH":"2026-03-09T02:35:17.409696","MEAN_MOTION":15.27576757,"ECCENTRICITY":0.00018055,"INCLINATION":43.0021,"RA_OF_ASC_NODE":347.0065,"ARG_OF_PERICENTER":253.1497,"MEAN_ANOMALY":106.9157,"EPHEMERIS_TYPE":0,"CLASSIFICATION_TYPE":"U","NORAD_CAT_ID":66864,"ELEMENT_SET_NO":999,"REV_AT_EPOCH":1609,"BSTAR":0.0011125818,"MEAN_MOTION_DOT":0.00030478,"MEAN_MOTION_DDOT":0}]
